start=new Date('2023-02-21T00:00:00.000Z').valueOf();
sats=[{"OBJECT_TYPE":"PAYLOAD","GP_ID":"226154046","MEAN_ELEMENT_THEORY":"SGP4","NORAD_CAT_ID":"45053","ELEMENT_SET_NO":"999","EPHEMERIS_TYPE":"0","REV_AT_EPOCH":"16899","EPOCH":"2023-02-20T04:34:02.472096","ECCENTRICITY":"0.00029820","DECAY_DATE":null,"ARG_OF_PERICENTER":"276.4152","TLE_LINE2":"2 45053  52.9891 215.8443 0002982 276.4152  83.6505 15.25979700168993","RA_OF_ASC_NODE":"215.8443","PERIAPSIS":"485.800","INCLINATION":"52.9891","RCS_SIZE":"LARGE","TLE_LINE1":"1 45053U 20006K   23051.19030639  .00035834  00000-0  13826-2 0  9992","CENTER_NAME":"EARTH","LAUNCH_DATE":"2020-01-29","TIME_SYSTEM":"UTC","MEAN_MOTION":"15.25979700","FILE":"3815761","REF_FRAME":"TEME","BSTAR":"0.00138260000000","MEAN_ANOMALY":"83.6505","OBJECT_ID":"2020-006K","OBJECT_NAME":"STARLINK-1155","COUNTRY_CODE":"US","SITE":"AFETR","MEAN_MOTION_DOT":"0.00035834","PERIOD":"94.366","APOAPSIS":"489.895","MEAN_MOTION_DDOT":"0.0000000000000","CLASSIFICATION_TYPE":"U","SEMIMAJOR_AXIS":"6865.982"},{"TLE_LINE2":"2 45054  53.0522 245.1230 0001040  91.2964 268.8144 15.06391674168639","RA_OF_ASC_NODE":"245.1230","DECAY_DATE":null,"ARG_OF_PERICENTER":"91.2964","TLE_LINE1":"1 45054U 20006L   23051.23246431  .00000607  00000-0  59614-4 0  9994","CENTER_NAME":"EARTH","LAUNCH_DATE":"2020-01-29","TIME_SYSTEM":"UTC","PERIAPSIS":"546.519","INCLINATION":"53.0522","RCS_SIZE":"LARGE","MEAN_ELEMENT_THEORY":"SGP4","NORAD_CAT_ID":"45054","OBJECT_TYPE":"PAYLOAD","GP_ID":"226154297","EPOCH":"2023-02-20T05:34:44.916384","ECCENTRICITY":"0.00010400","ELEMENT_SET_NO":"999","EPHEMERIS_TYPE":"0","REV_AT_EPOCH":"16863","COUNTRY_CODE":"US","SITE":"AFETR","PERIOD":"95.593","MEAN_MOTION_DOT":"0.00000607","APOAPSIS":"547.959","MEAN_MOTION_DDOT":"0.0000000000000","CLASSIFICATION_TYPE":"U","SEMIMAJOR_AXIS":"6925.374","FILE":"3815761","REF_FRAME":"TEME","MEAN_MOTION":"15.06391674","OBJECT_NAME":"STARLINK-1156","BSTAR":"0.00005961400000","MEAN_ANOMALY":"268.8144","OBJECT_ID":"2020-006L"},{"OBJECT_TYPE":"PAYLOAD","GP_ID":"226154548","MEAN_ELEMENT_THEORY":"SGP4","NORAD_CAT_ID":"45057","REV_AT_EPOCH":"16868","EPHEMERIS_TYPE":"0","ELEMENT_SET_NO":"999","ECCENTRICITY":"0.00015210","EPOCH":"2023-02-20T12:18:07.959168","ARG_OF_PERICENTER":"62.3711","DECAY_DATE":null,"RA_OF_ASC_NODE":"243.8675","TLE_LINE2":"2 45057  53.0520 243.8675 0001521  62.3711 297.7432 15.06404597168686","RCS_SIZE":"LARGE","INCLINATION":"53.0520","PERIAPSIS":"546.146","TIME_SYSTEM":"UTC","LAUNCH_DATE":"2020-01-29","CENTER_NAME":"EARTH","TLE_LINE1":"1 45057U 20006P   23051.51259212 -.00000729  00000-0 -30066-4 0  9996","MEAN_MOTION":"15.06404597","REF_FRAME":"TEME","FILE":"3815761","MEAN_ANOMALY":"297.7432","OBJECT_ID":"2020-006P","BSTAR":"-0.00003006600000","OBJECT_NAME":"STARLINK-1159","MEAN_MOTION_DOT":"-0.00000729","PERIOD":"95.592","SITE":"AFETR","COUNTRY_CODE":"US","SEMIMAJOR_AXIS":"6925.334","CLASSIFICATION_TYPE":"U","MEAN_MOTION_DDOT":"0.0000000000000","APOAPSIS":"548.253"},{"RCS_SIZE":"LARGE","INCLINATION":"53.0498","PERIAPSIS":"546.587","TIME_SYSTEM":"UTC","LAUNCH_DATE":"2020-01-29","CENTER_NAME":"EARTH","TLE_LINE1":"1 45058U 20006Q   23051.57155747 -.00000921  00000-0 -42934-4 0  9992","ARG_OF_PERICENTER":"69.9204","DECAY_DATE":null,"RA_OF_ASC_NODE":"243.6010","TLE_LINE2":"2 45058  53.0498 243.6010 0000916  69.9204 290.1883 15.06397336168699","REV_AT_EPOCH":"16869","EPHEMERIS_TYPE":"0","ELEMENT_SET_NO":"999","ECCENTRICITY":"0.00009160","EPOCH":"2023-02-20T13:43:02.565408","GP_ID":"226153296","OBJECT_TYPE":"PAYLOAD","MEAN_ELEMENT_THEORY":"SGP4","NORAD_CAT_ID":"45058","SEMIMAJOR_AXIS":"6925.357","MEAN_MOTION_DDOT":"0.0000000000000","CLASSIFICATION_TYPE":"U","APOAPSIS":"547.856","MEAN_MOTION_DOT":"-0.00000921","PERIOD":"95.592","SITE":"AFETR","COUNTRY_CODE":"US","OBJECT_ID":"2020-006Q","MEAN_ANOMALY":"290.1883","BSTAR":"-0.00004293400000","OBJECT_NAME":"STARLINK-1162","MEAN_MOTION":"15.06397336","REF_FRAME":"TEME","FILE":"3815761"},{"TLE_LINE1":"1 45059U 20006R   23051.52733749  .00000955  00000-0  83004-4 0  9990","CENTER_NAME":"EARTH","LAUNCH_DATE":"2020-01-29","TIME_SYSTEM":"UTC","PERIAPSIS":"546.169","INCLINATION":"53.0521","RCS_SIZE":"LARGE","TLE_LINE2":"2 45059  53.0521 243.7998 0001531  91.9791 268.1374 15.06394993168688","RA_OF_ASC_NODE":"243.7998","DECAY_DATE":null,"ARG_OF_PERICENTER":"91.9791","EPOCH":"2023-02-20T12:39:21.959136","ECCENTRICITY":"0.00015310","ELEMENT_SET_NO":"999","EPHEMERIS_TYPE":"0","REV_AT_EPOCH":"16868","MEAN_ELEMENT_THEORY":"SGP4","NORAD_CAT_ID":"45059","GP_ID":"226153546","OBJECT_TYPE":"PAYLOAD","APOAPSIS":"548.289","CLASSIFICATION_TYPE":"U","MEAN_MOTION_DDOT":"0.0000000000000","SEMIMAJOR_AXIS":"6925.364","COUNTRY_CODE":"US","SITE":"AFETR","MEAN_MOTION_DOT":"0.00000955","PERIOD":"95.592","OBJECT_NAME":"STARLINK-1165","BSTAR":"0.00008300400000","MEAN_ANOMALY":"268.1374","OBJECT_ID":"2020-006R","FILE":"3815761","REF_FRAME":"TEME","MEAN_MOTION":"15.06394993"},{"MEAN_ANOMALY":"268.4770","OBJECT_ID":"2020-006S","BSTAR":"0.00013738000000","OBJECT_NAME":"STARLINK-1166","MEAN_MOTION":"15.06396656","FILE":"3815761","REF_FRAME":"TEME","CLASSIFICATION_TYPE":"U","MEAN_MOTION_DDOT":"0.0000000000000","SEMIMAJOR_AXIS":"6925.359","APOAPSIS":"547.993","PERIOD":"95.592","MEAN_MOTION_DOT":"0.00001765","COUNTRY_CODE":"US","SITE":"AFETR","REV_AT_EPOCH":"16868","ELEMENT_SET_NO":"999","EPHEMERIS_TYPE":"0","EPOCH":"2023-02-20T12:34:03.128448","ECCENTRICITY":"0.00011100","GP_ID":"226154798","OBJECT_TYPE":"PAYLOAD","MEAN_ELEMENT_THEORY":"SGP4","NORAD_CAT_ID":"45060","PERIAPSIS":"546.455","INCLINATION":"53.0516","RCS_SIZE":"LARGE","CENTER_NAME":"EARTH","LAUNCH_DATE":"2020-01-29","TIME_SYSTEM":"UTC","TLE_LINE1":"1 45060U 20006S   23051.52364732  .00001765  00000-0  13738-3 0  9990","ARG_OF_PERICENTER":"91.6347","DECAY_DATE":null,"RA_OF_ASC_NODE":"243.8169","TLE_LINE2":"2 45060  53.0516 243.8169 0001110  91.6347 268.4770 15.06396656168683"},{"OBJECT_NAME":"STARLINK-1169","OBJECT_ID":"2020-006T","MEAN_ANOMALY":"267.3803","BSTAR":"-0.00001184900000","FILE":"3815761","REF_FRAME":"TEME","MEAN_MOTION":"15.06395867","CLASSIFICATION_TYPE":"U","MEAN_MOTION_DDOT":"0.0000000000000","SEMIMAJOR_AXIS":"6925.361","APOAPSIS":"548.070","MEAN_MOTION_DOT":"-0.00000458","PERIOD":"95.592","COUNTRY_CODE":"US","SITE":"AFETR","EPOCH":"2023-02-20T12:44:40.109856","ECCENTRICITY":"0.00012190","REV_AT_EPOCH":"16868","ELEMENT_SET_NO":"999","EPHEMERIS_TYPE":"0","MEAN_ELEMENT_THEORY":"SGP4","NORAD_CAT_ID":"45061","OBJECT_TYPE":"PAYLOAD","GP_ID":"226155049","LAUNCH_DATE":"2020-01-29","CENTER_NAME":"EARTH","TIME_SYSTEM":"UTC","TLE_LINE1":"1 45061U 20006T   23051.53101979 -.00000458  00000-0 -11849-4 0  9996","PERIAPSIS":"546.382","INCLINATION":"53.0528","RCS_SIZE":"LARGE","RA_OF_ASC_NODE":"243.7734","TLE_LINE2":"2 45061  53.0528 243.7734 0001219  92.7326 267.3803 15.06395867168681","ARG_OF_PERICENTER":"92.7326","DECAY_DATE":null},{"CENTER_NAME":"EARTH","LAUNCH_DATE":"2020-01-29","TIME_SYSTEM":"UTC","TLE_LINE1":"1 45062U 20006U   23051.51626811 -.00003247  00000-0 -19924-3 0  9992","PERIAPSIS":"546.521","INCLINATION":"53.0501","RCS_SIZE":"LARGE","RA_OF_ASC_NODE":"243.8505","TLE_LINE2":"2 45062  53.0501 243.8505 0001027  91.5015 268.6092 15.06393926168687","ARG_OF_PERICENTER":"91.5015","DECAY_DATE":null,"EPOCH":"2023-02-20T12:23:25.564704","ECCENTRICITY":"0.00010270","REV_AT_EPOCH":"16868","ELEMENT_SET_NO":"999","EPHEMERIS_TYPE":"0","NORAD_CAT_ID":"45062","MEAN_ELEMENT_THEORY":"SGP4","OBJECT_TYPE":"PAYLOAD","GP_ID":"226153797","CLASSIFICATION_TYPE":"U","MEAN_MOTION_DDOT":"0.0000000000000","SEMIMAJOR_AXIS":"6925.367","APOAPSIS":"547.943","PERIOD":"95.593","MEAN_MOTION_DOT":"-0.00003247","COUNTRY_CODE":"US","SITE":"AFETR","OBJECT_NAME":"STARLINK-1171","OBJECT_ID":"2020-006U","MEAN_ANOMALY":"268.6092","BSTAR":"-0.00019924000000","FILE":"3815761","REF_FRAME":"TEME","MEAN_MOTION":"15.06393926"},{"REF_FRAME":"TEME","FILE":"3815761","MEAN_MOTION":"15.06404659","OBJECT_NAME":"STARLINK-1133","OBJECT_ID":"2020-006W","MEAN_ANOMALY":"147.6701","BSTAR":"-0.00022166000000","PERIOD":"95.592","MEAN_MOTION_DOT":"-0.00003581","COUNTRY_CODE":"US","SITE":"AFETR","SEMIMAJOR_AXIS":"6925.334","CLASSIFICATION_TYPE":"U","MEAN_MOTION_DDOT":"0.0000000000000","APOAPSIS":"547.282","MEAN_ELEMENT_THEORY":"SGP4","NORAD_CAT_ID":"45064","GP_ID":"226154047","OBJECT_TYPE":"PAYLOAD","ECCENTRICITY":"0.00001200","EPOCH":"2023-02-20T04:44:17.237472","REV_AT_EPOCH":"16891","EPHEMERIS_TYPE":"0","ELEMENT_SET_NO":"999","RA_OF_ASC_NODE":"225.2799","TLE_LINE2":"2 45064  53.0510 225.2799 0000120 212.4281 147.6701 15.06404659168915","ARG_OF_PERICENTER":"212.4281","DECAY_DATE":null,"TIME_SYSTEM":"UTC","CENTER_NAME":"EARTH","LAUNCH_DATE":"2020-01-29","TLE_LINE1":"1 45064U 20006W   23051.19742173 -.00003581  00000-0 -22166-3 0  9991","RCS_SIZE":"LARGE","PERIAPSIS":"547.116","INCLINATION":"53.0510"},{"ARG_OF_PERICENTER":"87.6576","DECAY_DATE":null,"RA_OF_ASC_NODE":"225.2636","TLE_LINE2":"2 45065  53.0507 225.2636 0001186  87.6576 272.4549 15.06396557168918","PERIAPSIS":"546.403","INCLINATION":"53.0507","RCS_SIZE":"LARGE","CENTER_NAME":"EARTH","LAUNCH_DATE":"2020-01-29","TIME_SYSTEM":"UTC","TLE_LINE1":"1 45065U 20006X   23051.20112528  .00000657  00000-0  62977-4 0  9993","GP_ID":"226154298","OBJECT_TYPE":"PAYLOAD","NORAD_CAT_ID":"45065","MEAN_ELEMENT_THEORY":"SGP4","REV_AT_EPOCH":"16891","ELEMENT_SET_NO":"999","EPHEMERIS_TYPE":"0","EPOCH":"2023-02-20T04:49:37.224192","ECCENTRICITY":"0.00011860","MEAN_MOTION_DOT":"0.00000657","PERIOD":"95.592","COUNTRY_CODE":"US","SITE":"AFETR","CLASSIFICATION_TYPE":"U","MEAN_MOTION_DDOT":"0.0000000000000","SEMIMAJOR_AXIS":"6925.359","APOAPSIS":"548.045","MEAN_MOTION":"15.06396557","FILE":"3815761","REF_FRAME":"TEME","OBJECT_ID":"2020-006X","MEAN_ANOMALY":"272.4549","BSTAR":"0.00006297700000","OBJECT_NAME":"STARLINK-1139"}];
